SL-3 R/B                
1 13403U 82079B   26089.92669773  .00007071  00000+0  27905-3 0  9991
2 13403  81.1486 168.0016 0025476  95.0203 265.3939 15.25084068380935
SL-14 R/B               
1 13553U 82092B   26089.86574091  .00000544  00000+0  58337-4 0  9995
2 13553  82.5656 121.5891 0019149 227.9412 304.7409 14.86685560332070
SL-3 R/B                
1 13819U 83010B   26089.39830392  .00019496  00000+0  38266-3 0  9992
2 13819  81.1054 336.8476 0015828 340.0759  19.9866 15.47055924361148
SL-3 R/B                
1 14208U 83075B   26089.88804138  .00015382  00000+0  39787-3 0  9998
2 14208  97.6134  95.2760 0022475 149.4910 210.7648 15.38923543333419
COSMOS 1536             
1 14699U 84013A   26089.73125361  .00009810  00000+0  40131-3 0  9997
2 14699  82.5410  86.9234 0013579 200.6041 159.4650 15.24114528275828
SL-14 R/B               
1 14820U 84027B   26089.83694510  .00000712  00000+0  78565-4 0  9991
2 14820  82.5421 225.1777 0016488 262.8682  97.0660 14.85999440250773
SL-8 R/B                
1 15483U 85006B   26089.81972495  .00000367  00000+0  13043-3 0  9999
2 15483  74.0455 222.2648 0017602 133.9281 337.2974 14.37798599157063
SL-12 R/B(2)            
1 15772U 85042D   26089.86231629  .00000071  00000+0  53096-4 0  9997
2 15772  71.1092  42.9942 0032847  93.0233 297.9839 14.21988471117403
SL-14 R/B               
1 15945U 85069B   26089.81528759  .00000618  00000+0  66926-4 0  9999
2 15945  82.5305   5.0738 0020120 119.9885 240.3332 14.86456254175979
SL-16 R/B               
1 16182U 85097B   26089.47378432 -.00000131  00000+0 -41596-4 0  9995
2 16182  71.0007  96.7954 0009410 235.5352 234.0977 14.16603435 90176
SL-14 R/B               
1 16496U 86006B   26089.85422625  .00001224  00000+0  12739-3 0  9998
2 16496  82.5254 239.8134 0075954 201.5279 158.2741 14.86850403152353
COSMOS 1743             
1 16719U 86034A   26089.88233043  .00060268  00000+0  73133-3 0  9992
2 16719  82.5305  51.5580 0004763 165.9076 194.2314 15.60365172183559
