CCSDS_OMM_VERS = 2.0
CREATION_DATE  = 
ORIGINATOR     = 

OBJECT_NAME    = SL-3 R/B
OBJECT_ID      = 1982-079B
CENTER_NAME    = EARTH
REF_FRAME      = TEME
TIME_SYSTEM    = UTC
MEAN_ELEMENT_THEORY = SGP/SGP4

EPOCH          = 2026-03-30T22:14:26.683872
MEAN_MOTION    = 15.25084068
ECCENTRICITY   = .00254767
INCLINATION    = 81.1486
RA_OF_ASC_NODE = 168.0016
ARG_OF_PERICENTER = 95.0203
MEAN_ANOMALY   = 265.3939

EPHEMERIS_TYPE = 0
CLASSIFICATION_TYPE = U
NORAD_CAT_ID   = 13403
ELEMENT_SET_NO = 999
REV_AT_EPOCH   = 38093
BSTAR          = .27905328E-3
MEAN_MOTION_DOT = .7071E-4
MEAN_MOTION_DDOT = 0

CCSDS_OMM_VERS = 2.0
CREATION_DATE  = 
ORIGINATOR     = 

OBJECT_NAME    = SL-14 R/B
OBJECT_ID      = 1982-092B
CENTER_NAME    = EARTH
REF_FRAME      = TEME
TIME_SYSTEM    = UTC
MEAN_ELEMENT_THEORY = SGP/SGP4

EPOCH          = 2026-03-30T20:46:40.014624
MEAN_MOTION    = 14.86685560
ECCENTRICITY   = .00191497
INCLINATION    = 82.5656
RA_OF_ASC_NODE = 121.5891
ARG_OF_PERICENTER = 227.9412
MEAN_ANOMALY   = 304.7409

EPHEMERIS_TYPE = 0
CLASSIFICATION_TYPE = U
NORAD_CAT_ID   = 13553
ELEMENT_SET_NO = 999
REV_AT_EPOCH   = 33207
BSTAR          = .58337342E-4
MEAN_MOTION_DOT = .544E-5
MEAN_MOTION_DDOT = 0

CCSDS_OMM_VERS = 2.0
CREATION_DATE  = 
ORIGINATOR     = 

OBJECT_NAME    = SL-3 R/B
OBJECT_ID      = 1983-010B
CENTER_NAME    = EARTH
REF_FRAME      = TEME
TIME_SYSTEM    = UTC
MEAN_ELEMENT_THEORY = SGP/SGP4

EPOCH          = 2026-03-30T09:33:33.458688
MEAN_MOTION    = 15.47055924
ECCENTRICITY   = .00158281
INCLINATION    = 81.1054
RA_OF_ASC_NODE = 336.8476
ARG_OF_PERICENTER = 340.0759
MEAN_ANOMALY   = 19.9866

EPHEMERIS_TYPE = 0
CLASSIFICATION_TYPE = U
NORAD_CAT_ID   = 13819
ELEMENT_SET_NO = 999
REV_AT_EPOCH   = 36114
BSTAR          = .38266215E-3
MEAN_MOTION_DOT = .19496E-3
MEAN_MOTION_DDOT = 0

CCSDS_OMM_VERS = 2.0
CREATION_DATE  = 
ORIGINATOR     = 

OBJECT_NAME    = SL-3 R/B
OBJECT_ID      = 1983-075B
CENTER_NAME    = EARTH
REF_FRAME      = TEME
TIME_SYSTEM    = UTC
MEAN_ELEMENT_THEORY = SGP/SGP4

EPOCH          = 2026-03-30T21:18:46.775232
MEAN_MOTION    = 15.38923543
ECCENTRICITY   = .00224755
INCLINATION    = 97.6134
RA_OF_ASC_NODE = 95.2760
ARG_OF_PERICENTER = 149.4910
MEAN_ANOMALY   = 210.7648

EPHEMERIS_TYPE = 0
CLASSIFICATION_TYPE = U
NORAD_CAT_ID   = 14208
ELEMENT_SET_NO = 999
REV_AT_EPOCH   = 33341
BSTAR          = .39787125E-3
MEAN_MOTION_DOT = .15382E-3
MEAN_MOTION_DDOT = 0

CCSDS_OMM_VERS = 2.0
CREATION_DATE  = 
ORIGINATOR     = 

OBJECT_NAME    = COSMOS 1536
OBJECT_ID      = 1984-013A
CENTER_NAME    = EARTH
REF_FRAME      = TEME
TIME_SYSTEM    = UTC
MEAN_ELEMENT_THEORY = SGP/SGP4

EPOCH          = 2026-03-30T17:33:00.311904
MEAN_MOTION    = 15.24114528
ECCENTRICITY   = .00135799
INCLINATION    = 82.5410
RA_OF_ASC_NODE = 86.9234
ARG_OF_PERICENTER = 200.6041
MEAN_ANOMALY   = 159.4650

EPHEMERIS_TYPE = 0
CLASSIFICATION_TYPE = U
NORAD_CAT_ID   = 14699
ELEMENT_SET_NO = 999
REV_AT_EPOCH   = 27582
BSTAR          = .40131105E-3
MEAN_MOTION_DOT = .981E-4
MEAN_MOTION_DDOT = 0

CCSDS_OMM_VERS = 2.0
CREATION_DATE  = 
ORIGINATOR     = 

OBJECT_NAME    = SL-14 R/B
OBJECT_ID      = 1984-027B
CENTER_NAME    = EARTH
REF_FRAME      = TEME
TIME_SYSTEM    = UTC
MEAN_ELEMENT_THEORY = SGP/SGP4

EPOCH          = 2026-03-30T20:05:12.056640
MEAN_MOTION    = 14.85999440
ECCENTRICITY   = .00164889
INCLINATION    = 82.5421
RA_OF_ASC_NODE = 225.1777
ARG_OF_PERICENTER = 262.8682
MEAN_ANOMALY   = 97.0660

EPHEMERIS_TYPE = 0
CLASSIFICATION_TYPE = U
NORAD_CAT_ID   = 14820
ELEMENT_SET_NO = 999
REV_AT_EPOCH   = 25077
BSTAR          = .78565208E-4
MEAN_MOTION_DOT = .712E-5
MEAN_MOTION_DDOT = 0

CCSDS_OMM_VERS = 2.0
CREATION_DATE  = 
ORIGINATOR     = 

OBJECT_NAME    = SL-8 R/B
OBJECT_ID      = 1985-006B
CENTER_NAME    = EARTH
REF_FRAME      = TEME
TIME_SYSTEM    = UTC
MEAN_ELEMENT_THEORY = SGP/SGP4

EPOCH          = 2026-03-30T19:40:24.235680
MEAN_MOTION    = 14.37798599
ECCENTRICITY   = .00176029
INCLINATION    = 74.0455
RA_OF_ASC_NODE = 222.2648
ARG_OF_PERICENTER = 133.9281
MEAN_ANOMALY   = 337.2974

EPHEMERIS_TYPE = 0
CLASSIFICATION_TYPE = U
NORAD_CAT_ID   = 15483
ELEMENT_SET_NO = 999
REV_AT_EPOCH   = 15706
BSTAR          = .13042731E-3
MEAN_MOTION_DOT = .367E-5
MEAN_MOTION_DDOT = 0

CCSDS_OMM_VERS = 2.0
CREATION_DATE  = 
ORIGINATOR     = 

OBJECT_NAME    = SL-12 R/B(2)
OBJECT_ID      = 1985-042D
CENTER_NAME    = EARTH
REF_FRAME      = TEME
TIME_SYSTEM    = UTC
MEAN_ELEMENT_THEORY = SGP/SGP4

EPOCH          = 2026-03-30T20:41:44.127456
MEAN_MOTION    = 14.21988471
ECCENTRICITY   = .00328474
INCLINATION    = 71.1092
RA_OF_ASC_NODE = 42.9942
ARG_OF_PERICENTER = 93.0233
MEAN_ANOMALY   = 297.9839

EPHEMERIS_TYPE = 0
CLASSIFICATION_TYPE = U
NORAD_CAT_ID   = 15772
ELEMENT_SET_NO = 999
REV_AT_EPOCH   = 11740
BSTAR          = .53096484E-4
MEAN_MOTION_DOT = .71E-6
MEAN_MOTION_DDOT = 0

CCSDS_OMM_VERS = 2.0
CREATION_DATE  = 
ORIGINATOR     = 

OBJECT_NAME    = SL-14 R/B
OBJECT_ID      = 1985-069B
CENTER_NAME    = EARTH
REF_FRAME      = TEME
TIME_SYSTEM    = UTC
MEAN_ELEMENT_THEORY = SGP/SGP4

EPOCH          = 2026-03-30T19:34:00.847776
MEAN_MOTION    = 14.86456254
ECCENTRICITY   = .00201205
INCLINATION    = 82.5305
RA_OF_ASC_NODE = 5.0738
ARG_OF_PERICENTER = 119.9885
MEAN_ANOMALY   = 240.3332

EPHEMERIS_TYPE = 0
CLASSIFICATION_TYPE = U
NORAD_CAT_ID   = 15945
ELEMENT_SET_NO = 999
REV_AT_EPOCH   = 17597
BSTAR          = .66926333E-4
MEAN_MOTION_DOT = .618E-5
MEAN_MOTION_DDOT = 0

CCSDS_OMM_VERS = 2.0
CREATION_DATE  = 
ORIGINATOR     = 

OBJECT_NAME    = SL-16 R/B
OBJECT_ID      = 1985-097B
CENTER_NAME    = EARTH
REF_FRAME      = TEME
TIME_SYSTEM    = UTC
MEAN_ELEMENT_THEORY = SGP/SGP4

EPOCH          = 2026-03-30T11:22:14.965248
MEAN_MOTION    = 14.16603435
ECCENTRICITY   = .000941
INCLINATION    = 71.0007
RA_OF_ASC_NODE = 96.7954
ARG_OF_PERICENTER = 235.5352
MEAN_ANOMALY   = 234.0977

EPHEMERIS_TYPE = 0
CLASSIFICATION_TYPE = U
NORAD_CAT_ID   = 16182
ELEMENT_SET_NO = 999
REV_AT_EPOCH   = 9017
BSTAR          = -.41596378E-4
MEAN_MOTION_DOT = -.131E-5
MEAN_MOTION_DDOT = 0

CCSDS_OMM_VERS = 2.0
CREATION_DATE  = 
ORIGINATOR     = 

OBJECT_NAME    = SL-14 R/B
OBJECT_ID      = 1986-006B
CENTER_NAME    = EARTH
REF_FRAME      = TEME
TIME_SYSTEM    = UTC
MEAN_ELEMENT_THEORY = SGP/SGP4

EPOCH          = 2026-03-30T20:30:05.148000
MEAN_MOTION    = 14.86850403
ECCENTRICITY   = .00759547
INCLINATION    = 82.5254
RA_OF_ASC_NODE = 239.8134
ARG_OF_PERICENTER = 201.5279
MEAN_ANOMALY   = 158.2741

EPHEMERIS_TYPE = 0
CLASSIFICATION_TYPE = U
NORAD_CAT_ID   = 16496
ELEMENT_SET_NO = 999
REV_AT_EPOCH   = 15235
BSTAR          = .1273937E-3
MEAN_MOTION_DOT = .1224E-4
MEAN_MOTION_DDOT = 0

CCSDS_OMM_VERS = 2.0
CREATION_DATE  = 
ORIGINATOR     = 

OBJECT_NAME    = COSMOS 1743
OBJECT_ID      = 1986-034A
CENTER_NAME    = EARTH
REF_FRAME      = TEME
TIME_SYSTEM    = UTC
MEAN_ELEMENT_THEORY = SGP/SGP4

EPOCH          = 2026-03-30T21:10:33.349152
MEAN_MOTION    = 15.60365172
ECCENTRICITY   = .00047635
INCLINATION    = 82.5305
RA_OF_ASC_NODE = 51.5580
ARG_OF_PERICENTER = 165.9076
MEAN_ANOMALY   = 194.2314

EPHEMERIS_TYPE = 0
CLASSIFICATION_TYPE = U
NORAD_CAT_ID   = 16719
ELEMENT_SET_NO = 999
REV_AT_EPOCH   = 18355
BSTAR          = .73132805E-3
MEAN_MOTION_DOT = .60268E-3
MEAN_MOTION_DDOT = 0

